KUIPER-00095            
1 65134U 25171C   25334.83336806 -.01152536  00000+0 -78399-1 0  9990
2 65134  51.8842 229.9377 0005829 152.2291  61.4513 15.08920514  4025
KUIPER-00096            
1 65135U 25171D   25334.83336806 -.00043864  00000+0 -54468-2 0  9995
2 65135  51.8993 235.2562 0012279 171.2139 281.3768 14.82219367  5482
KUIPER-00097            
1 65136U 25171E   25334.83336806 -.00017940  00000+0 -23334-2 0  9990
2 65136  51.9004 237.7859 0011062 176.2384 332.0759 14.79829441  3915
KUIPER-00098            
1 65137U 25171F   25334.13296803  .00004543  00000+0  62372-3 0  9995
2 65137  51.9001 243.3273 0007824 162.3822 197.7413 14.79982210 17428
KUIPER-00099            
1 65138U 25171G   25334.83336806 -.01307533  00000+0 -10452+0 0  9997
2 65138  51.8929 231.4075 0006287 193.7133 114.9455 15.02856138  5408
KUIPER-00100            
1 65139U 25171H   25334.83336806 -.00678945  00000+0 -44995-1 0  9996
2 65139  51.8978 229.9913 0002515 202.3786  65.9560 15.09327846  5001
KUIPER-00102            
1 65140U 25171J   25334.83336806 -.01046989  00000+0 -84586-1 0  9996
2 65140  51.8975 231.2810 0012283 168.1633 101.4436 15.02208743  4481
KUIPER-00103            
1 65141U 25171K   25334.76642387  .00004604  00000+0  63254-3 0  9999
2 65141  51.8987 248.0194 0006423 160.6806 199.4401 14.79933413 18064
